{
  "norad_id": 66863,
  "name": "STARLINK-36134",
  "history": [
    {
      "epoch": "2026-03-28T19:16:32.161728Z",
      "apogee_km": 484.3892156500415,
      "perigee_km": 481.31768744469264,
      "latitude_deg": 6.008034531620815e-05,
      "longitude_deg": 119.74440019548689,
      "height_km": 482.4395771227337,
      "semi_major_axis_km": 6860.990451547366,
      "eccentricity": 0.00022384,
      "inclination_deg": 43.0025,
      "raan_deg": 235.0967,
      "arg_perigee_deg": 277.1632,
      "mean_anomaly_deg": 82.8966,
      "mean_motion_rev_day": 15.2764534
    },
    {
      "epoch": "2026-03-28T20:50:41.278848Z",
      "apogee_km": 484.6950682697998,
      "perigee_km": 480.990139283761,
      "latitude_deg": 2.0810747591402757e-05,
      "longitude_deg": 95.7731255739128,
      "height_km": 482.07857499688987,
      "semi_major_axis_km": 6860.97960377678,
      "eccentricity": 0.00027,
      "inclination_deg": 43.0022,
      "raan_deg": 234.7279,
      "arg_perigee_deg": 287.0103,
      "mean_anomaly_deg": 73.0453,
      "mean_motion_rev_day": 15.27648963
    }
  ]
}